[{"OBJECT_NAME":"SL-8 R/B","OBJECT_ID":"1988-053B","EPOCH":"2026-04-19T04:59:31.480800","MEAN_MOTION":14.38939127,"ECCENTRICITY":0.00208597,"INCLINATION":74.0491,"RA_OF_ASC_NODE":37.7751,"ARG_OF_PERICENTER":210.8976,"MEAN_ANOMALY":308.1224,"EPHEMERIS_TYPE":0,"CLASSIFICATION_TYPE":"U","NORAD_CAT_ID":19257,"ELEMENT_SET_NO":999,"REV_AT_EPOCH":98242,"BSTAR":4.5194479e-5,"MEAN_MOTION_DOT":1.13e-6,"MEAN_MOTION_DDOT":0},{"OBJECT_NAME":"COSMOS 1975","OBJECT_ID":"1988-093A","EPOCH":"2026-04-18T08:03:20.031264","MEAN_MOTION":15.28569537,"ECCENTRICITY":0.00125701,"INCLINATION":82.5179,"RA_OF_ASC_NODE":77.8596,"ARG_OF_PERICENTER":39.6528,"MEAN_ANOMALY":320.5629,"EPHEMERIS_TYPE":0,"CLASSIFICATION_TYPE":"U","NORAD_CAT_ID":19573,"ELEMENT_SET_NO":999,"REV_AT_EPOCH":2546,"BSTAR":0.00013493626,"MEAN_MOTION_DOT":3.791e-5,"MEAN_MOTION_DDOT":0},{"OBJECT_NAME":"SL-14 R/B","OBJECT_ID":"1988-093B","EPOCH":"2026-04-19T03:48:34.985664","MEAN_MOTION":14.85699339,"ECCENTRICITY":0.00190767,"INCLINATION":82.5341,"RA_OF_ASC_NODE":4.0644,"ARG_OF_PERICENTER":263.9768,"MEAN_ANOMALY":256.5621,"EPHEMERIS_TYPE":0,"CLASSIFICATION_TYPE":"U","NORAD_CAT_ID":19574,"ELEMENT_SET_NO":999,"REV_AT_EPOCH":702,"BSTAR":2.9466039e-5,"MEAN_MOTION_DOT":2.8e-6,"MEAN_MOTION_DDOT":0},{"OBJECT_NAME":"SL-16 R/B","OBJECT_ID":"1988-102B","EPOCH":"2026-04-19T04:00:04.421376","MEAN_MOTION":14.16159025,"ECCENTRICITY":0.00161686,"INCLINATION":70.9995,"RA_OF_ASC_NODE":66.3251,"ARG_OF_PERICENTER":303.7647,"MEAN_ANOMALY":56.1935,"EPHEMERIS_TYPE":0,"CLASSIFICATION_TYPE":"U","NORAD_CAT_ID":19650,"ELEMENT_SET_NO":999,"REV_AT_EPOCH":93262,"BSTAR":-0.00010063076,"MEAN_MOTION_DOT":-2.47e-6,"MEAN_MOTION_DDOT":0},{"OBJECT_NAME":"INTERCOSMOS 24","OBJECT_ID":"1989-080A","EPOCH":"2026-04-19T03:44:06.960768","MEAN_MOTION":12.59598609,"ECCENTRICITY":0.11873711,"INCLINATION":82.603,"RA_OF_ASC_NODE":78.0476,"ARG_OF_PERICENTER":198.8387,"MEAN_ANOMALY":156.4985,"EPHEMERIS_TYPE":0,"CLASSIFICATION_TYPE":"U","NORAD_CAT_ID":20261,"ELEMENT_SET_NO":999,"REV_AT_EPOCH":67189,"BSTAR":5.6674801e-5,"MEAN_MOTION_DOT":2.06e-6,"MEAN_MOTION_DDOT":0},{"OBJECT_NAME":"SL-14 R/B","OBJECT_ID":"1989-080C","EPOCH":"2026-04-19T02:57:27.660384","MEAN_MOTION":12.50525855,"ECCENTRICITY":0.12309772,"INCLINATION":82.592,"RA_OF_ASC_NODE":147.2395,"ARG_OF_PERICENTER":92.3781,"MEAN_ANOMALY":281.8442,"EPHEMERIS_TYPE":0,"CLASSIFICATION_TYPE":"U","NORAD_CAT_ID":20262,"ELEMENT_SET_NO":999,"REV_AT_EPOCH":66520,"BSTAR":6.2237088e-5,"MEAN_MOTION_DOT":2.4e-6,"MEAN_MOTION_DDOT":0},{"OBJECT_NAME":"DELTA 1 R/B","OBJECT_ID":"1989-089B","EPOCH":"2026-04-19T02:36:56.164032","MEAN_MOTION":14.50693823,"ECCENTRICITY":0.00689246,"INCLINATION":97.0671,"RA_OF_ASC_NODE":310.1087,"ARG_OF_PERICENTER":356.1247,"MEAN_ANOMALY":3.9408,"EPHEMERIS_TYPE":0,"CLASSIFICATION_TYPE":"U","NORAD_CAT_ID":20323,"ELEMENT_SET_NO":999,"REV_AT_EPOCH":90159,"BSTAR":4.959507e-5,"MEAN_MOTION_DOT":1.65e-6,"MEAN_MOTION_DDOT":0},{"OBJECT_NAME":"ARIANE 40 R/B","OBJECT_ID":"1990-005H","EPOCH":"2026-04-19T02:49:54.012864","MEAN_MOTION":14.39895795,"ECCENTRICITY":0.00113767,"INCLINATION":98.3008,"RA_OF_ASC_NODE":168.5583,"ARG_OF_PERICENTER":85.091,"MEAN_ANOMALY":275.1577,"EPHEMERIS_TYPE":0,"CLASSIFICATION_TYPE":"U","NORAD_CAT_ID":20443,"ELEMENT_SET_NO":999,"REV_AT_EPOCH":89862,"BSTAR":5.9317106e-5,"MEAN_MOTION_DOT":1.44e-6,"MEAN_MOTION_DDOT":0},{"OBJECT_NAME":"DELTA 2 R/B(1)","OBJECT_ID":"1990-008B","EPOCH":"2026-04-18T17:26:01.074048","MEAN_MOTION":15.61185734,"ECCENTRICITY":0.00760172,"INCLINATION":35.6031,"RA_OF_ASC_NODE":271.0267,"ARG_OF_PERICENTER":275.0507,"MEAN_ANOMALY":84.1557,"EPHEMERIS_TYPE":0,"CLASSIFICATION_TYPE":"U","NORAD_CAT_ID":20453,"ELEMENT_SET_NO":999,"REV_AT_EPOCH":93238,"BSTAR":0.00060812547,"MEAN_MOTION_DOT":0.00061912,"MEAN_MOTION_DDOT":0},{"OBJECT_NAME":"COSMOS 2058","OBJECT_ID":"1990-010A","EPOCH":"2026-04-19T03:54:46.017504","MEAN_MOTION":15.11668383,"ECCENTRICITY":0.00091548,"INCLINATION":82.4711,"RA_OF_ASC_NODE":7.5527,"ARG_OF_PERICENTER":185.66,"MEAN_ANOMALY":174.4528,"EPHEMERIS_TYPE":0,"CLASSIFICATION_TYPE":"U","NORAD_CAT_ID":20465,"ELEMENT_SET_NO":999,"REV_AT_EPOCH":94835,"BSTAR":0.00010828881,"MEAN_MOTION_DOT":1.872e-5,"MEAN_MOTION_DDOT":0},{"OBJECT_NAME":"SL-14 R/B","OBJECT_ID":"1990-010B","EPOCH":"2026-04-19T06:56:33.925920","MEAN_MOTION":14.83607362,"ECCENTRICITY":0.00202909,"INCLINATION":82.5032,"RA_OF_ASC_NODE":229.2483,"ARG_OF_PERICENTER":162.0528,"MEAN_ANOMALY":198.1408,"EPHEMERIS_TYPE":0,"CLASSIFICATION_TYPE":"U","NORAD_CAT_ID":20466,"ELEMENT_SET_NO":999,"REV_AT_EPOCH":93450,"BSTAR":3.6344969e-5,"MEAN_MOTION_DOT":3.25e-6,"MEAN_MOTION_DDOT":0},{"OBJECT_NAME":"SL-14 R/B","OBJECT_ID":"1990-018B","EPOCH":"2026-04-19T05:03:48.677184","MEAN_MOTION":14.82181222,"ECCENTRICITY":0.00152054,"INCLINATION":82.524,"RA_OF_ASC_NODE":185.2278,"ARG_OF_PERICENTER":322.7381,"MEAN_ANOMALY":37.2777,"EPHEMERIS_TYPE":0,"CLASSIFICATION_TYPE":"U","NORAD_CAT_ID":20511,"ELEMENT_SET_NO":999,"REV_AT_EPOCH":92858,"BSTAR":2.9521145e-5,"MEAN_MOTION_DOT":2.59e-6,"MEAN_MOTION_DDOT":0},{"OBJECT_NAME":"HST","OBJECT_ID":"1990-037B","EPOCH":"2026-04-19T03:04:35.319648","MEAN_MOTION":15.30079379,"ECCENTRICITY":0.00019751,"INCLINATION":28.4728,"RA_OF_ASC_NODE":124.0054,"ARG_OF_PERICENTER":201.9875,"MEAN_ANOMALY":158.0636,"EPHEMERIS_TYPE":0,"CLASSIFICATION_TYPE":"U","NORAD_CAT_ID":20580,"ELEMENT_SET_NO":999,"REV_AT_EPOCH":77951,"BSTAR":0.00014900028,"MEAN_MOTION_DOT":4.692e-5,"MEAN_MOTION_DDOT":0},{"OBJECT_NAME":"SL-16 R/B","OBJECT_ID":"1990-046B","EPOCH":"2026-04-19T06:34:52.862880","MEAN_MOTION":14.15015447,"ECCENTRICITY":0.00163312,"INCLINATION":70.9992,"RA_OF_ASC_NODE":212.6749,"ARG_OF_PERICENTER":246.3289,"MEAN_ANOMALY":113.612,"EPHEMERIS_TYPE":0,"CLASSIFICATION_TYPE":"U","NORAD_CAT_ID":20625,"ELEMENT_SET_NO":999,"REV_AT_EPOCH":85413,"BSTAR":-7.3013969e-5,"MEAN_MOTION_DOT":-1.89e-6,"MEAN_MOTION_DDOT":0},{"OBJECT_NAME":"COSMOS 2084","OBJECT_ID":"1990-055A","EPOCH":"2026-04-18T15:12:50.421024","MEAN_MOTION":15.05877251,"ECCENTRICITY":0.0010761,"INCLINATION":62.7892,"RA_OF_ASC_NODE":199.3146,"ARG_OF_PERICENTER":205.7221,"MEAN_ANOMALY":154.3345,"EPHEMERIS_TYPE":0,"CLASSIFICATION_TYPE":"U","NORAD_CAT_ID":20663,"ELEMENT_SET_NO":999,"REV_AT_EPOCH":94233,"BSTAR":0.00011118,"MEAN_MOTION_DOT":1.422e-5,"MEAN_MOTION_DDOT":0},{"OBJECT_NAME":"SL-6 R/B(2)","OBJECT_ID":"1990-055D","EPOCH":"2026-04-19T06:29:09.186144","MEAN_MOTION":15.0377092,"ECCENTRICITY":0.00313879,"INCLINATION":62.7803,"RA_OF_ASC_NODE":115.8287,"ARG_OF_PERICENTER":355.6636,"MEAN_ANOMALY":4.4186,"EPHEMERIS_TYPE":0,"CLASSIFICATION_TYPE":"U","NORAD_CAT_ID":20666,"ELEMENT_SET_NO":999,"REV_AT_EPOCH":94429,"BSTAR":0.00010574645,"MEAN_MOTION_DOT":1.269e-5,"MEAN_MOTION_DDOT":0},{"OBJECT_NAME":"SL-8 R/B","OBJECT_ID":"1990-078B","EPOCH":"2026-04-19T05:07:51.687552","MEAN_MOTION":14.90152605,"ECCENTRICITY":0.03565232,"INCLINATION":82.9061,"RA_OF_ASC_NODE":214.8326,"ARG_OF_PERICENTER":237.0886,"MEAN_ANOMALY":119.5574,"EPHEMERIS_TYPE":0,"CLASSIFICATION_TYPE":"U","NORAD_CAT_ID":20775,"ELEMENT_SET_NO":999,"REV_AT_EPOCH":81533,"BSTAR":0.00045899506,"MEAN_MOTION_DOT":0.00015581,"MEAN_MOTION_DDOT":0}]
