SL-8 R/B                
1 19257U 88053B   26109.20800325  .00000113  00000+0  45194-4 0  9997
2 19257  74.0491  37.7751 0020859 210.8976 308.1224 14.38939127982420
COSMOS 1975             
1 19573U 88093A   26108.33564851  .00003791  00000+0  13494-3 0  9998
2 19573  82.5179  77.8596 0012570  39.6528 320.5629 15.28569537 25464
SL-14 R/B               
1 19574U 88093B   26109.15873826  .00000280  00000+0  29466-4 0  9992
2 19574  82.5341   4.0644 0019076 263.9768 256.5621 14.85699339  7026
SL-16 R/B               
1 19650U 88102B   26109.16671784 -.00000247  00000+0 -10063-3 0  9995
2 19650  70.9995  66.3251 0016168 303.7647  56.1935 14.16159025932622
INTERCOSMOS 24          
1 20261U 89080A   26109.15563612  .00000206  00000+0  56675-4 0  9993
2 20261  82.6030  78.0476 1187371 198.8387 156.4985 12.59598609671899
SL-14 R/B               
1 20262U 89080C   26109.12323681  .00000240  00000+0  62237-4 0  9990
2 20262  82.5920 147.2395 1230977  92.3781 281.8442 12.50525855665206
DELTA 1 R/B             
1 20323U 89089B   26109.10898338  .00000165  00000+0  49595-4 0  9999
2 20323  97.0671 310.1087 0068924 356.1247   3.9408 14.50693823901598
ARIANE 40 R/B           
1 20443U 90005H   26109.11798626  .00000144  00000+0  59317-4 0  9992
2 20443  98.3008 168.5583 0011376  85.0910 275.1577 14.39895795898627
DELTA 2 R/B(1)          
1 20453U 90008B   26108.72640132  .00061912  00000+0  60813-3 0  9992
2 20453  35.6031 271.0267 0076017 275.0507  84.1557 15.61185734932382
COSMOS 2058             
1 20465U 90010A   26109.16303261  .00001872  00000+0  10829-3 0  9997
2 20465  82.4711   7.5527 0009154 185.6600 174.4528 15.11668383948355
SL-14 R/B               
1 20466U 90010B   26109.28928155  .00000325  00000+0  36345-4 0  9990
2 20466  82.5032 229.2483 0020290 162.0528 198.1408 14.83607362934509
SL-14 R/B               
1 20511U 90018B   26109.21098006  .00000259  00000+0  29521-4 0  9999
2 20511  82.5240 185.2278 0015205 322.7381  37.2777 14.82181222928580
HST                     
1 20580U 90037B   26109.12818657  .00004692  00000+0  14900-3 0  9997
2 20580  28.4728 124.0054 0001975 201.9875 158.0636 15.30079379779510
SL-16 R/B               
1 20625U 90046B   26109.27422295 -.00000189  00000+0 -73014-4 0  9993
2 20625  70.9992 212.6749 0016331 246.3289 113.6120 14.15015447854139
COSMOS 2084             
1 20663U 90055A   26108.63391691  .00001422  00000+0  11118-3 0  9994
2 20663  62.7892 199.3146 0010761 205.7221 154.3345 15.05877251942337
SL-6 R/B(2)             
1 20666U 90055D   26109.27024521  .00001269  00000+0  10575-3 0  9998
2 20666  62.7803 115.8287 0031387 355.6636   4.4186 15.03770920944291
SL-8 R/B                
1 20775U 90078B   26109.21379268  .00015581  00000+0  45900-3 0  9991
2 20775  82.9061 214.8326 0356523 237.0886 119.5574 14.90152605815338
